[{"OBJECT_NAME":"FENGYUN 1C DEB","OBJECT_ID":"1999-025CUA","EPOCH":"2026-03-04T23:52:30.257760","MEAN_MOTION":13.82350796,"ECCENTRICITY":0.01362896,"INCLINATION":99.5725,"RA_OF_ASC_NODE":110.4647,"ARG_OF_PERICENTER":354.4454,"MEAN_ANOMALY":121.4403,"EPHEMERIS_TYPE":0,"CLASSIFICATION_TYPE":"U","NORAD_CAT_ID":32180,"ELEMENT_SET_NO":999,"REV_AT_EPOCH":95404,"BSTAR":0.00010146243,"MEAN_MOTION_DOT":7.1e-7,"MEAN_MOTION_DDOT":0},{"OBJECT_NAME":"FENGYUN 1C DEB","OBJECT_ID":"1999-025CUB","EPOCH":"2026-03-03T06:49:14.289888","MEAN_MOTION":14.56875239,"ECCENTRICITY":0.00728187,"INCLINATION":99.4724,"RA_OF_ASC_NODE":181.9411,"ARG_OF_PERICENTER":204.2643,"MEAN_ANOMALY":186.6844,"EPHEMERIS_TYPE":0,"CLASSIFICATION_TYPE":"U","NORAD_CAT_ID":32181,"ELEMENT_SET_NO":999,"REV_AT_EPOCH":97893,"BSTAR":0.001528352,"MEAN_MOTION_DOT":7.05e-5,"MEAN_MOTION_DDOT":0},{"OBJECT_NAME":"FENGYUN 1C DEB","OBJECT_ID":"1999-025CUD","EPOCH":"2026-03-05T02:28:32.000160","MEAN_MOTION":14.10308678,"ECCENTRICITY":0.00432577,"INCLINATION":98.7012,"RA_OF_ASC_NODE":117.6939,"ARG_OF_PERICENTER":184.7932,"MEAN_ANOMALY":175.2831,"EPHEMERIS_TYPE":0,"CLASSIFICATION_TYPE":"U","NORAD_CAT_ID":32183,"ELEMENT_SET_NO":999,"REV_AT_EPOCH":73925,"BSTAR":0.00067909367,"MEAN_MOTION_DOT":1.173e-5,"MEAN_MOTION_DDOT":0},{"OBJECT_NAME":"FENGYUN 1C DEB","OBJECT_ID":"1999-025CUE","EPOCH":"2026-02-18T09:12:07.488000","MEAN_MOTION":15.64462753,"ECCENTRICITY":0.0038431,"INCLINATION":98.1181,"RA_OF_ASC_NODE":202.4936,"ARG_OF_PERICENTER":104.8832,"MEAN_ANOMALY":255.6686,"EPHEMERIS_TYPE":0,"CLASSIFICATION_TYPE":"U","NORAD_CAT_ID":32184,"ELEMENT_SET_NO":999,"REV_AT_EPOCH":99453,"BSTAR":0.0020372,"MEAN_MOTION_DOT":0.00207585,"MEAN_MOTION_DDOT":0},{"OBJECT_NAME":"FENGYUN 1C DEB","OBJECT_ID":"1999-025CUF","EPOCH":"2026-03-04T02:49:23.111040","MEAN_MOTION":15.162228,"ECCENTRICITY":0.01291131,"INCLINATION":98.8965,"RA_OF_ASC_NODE":287.4325,"ARG_OF_PERICENTER":105.7317,"MEAN_ANOMALY":255.8195,"EPHEMERIS_TYPE":0,"CLASSIFICATION_TYPE":"U","NORAD_CAT_ID":32185,"ELEMENT_SET_NO":999,"REV_AT_EPOCH":96243,"BSTAR":0.0045108375,"MEAN_MOTION_DOT":0.00109241,"MEAN_MOTION_DDOT":0},{"OBJECT_NAME":"FENGYUN 1C DEB","OBJECT_ID":"1999-025CUG","EPOCH":"2026-02-25T22:03:22.211712","MEAN_MOTION":13.76696057,"ECCENTRICITY":0.02708942,"INCLINATION":99.5999,"RA_OF_ASC_NODE":113.1799,"ARG_OF_PERICENTER":4.8015,"MEAN_ANOMALY":175.9966,"EPHEMERIS_TYPE":0,"CLASSIFICATION_TYPE":"U","NORAD_CAT_ID":32186,"ELEMENT_SET_NO":999,"REV_AT_EPOCH":63644,"BSTAR":0.00065981841,"MEAN_MOTION_DOT":8.03e-6,"MEAN_MOTION_DDOT":0},{"OBJECT_NAME":"FENGYUN 1C DEB","OBJECT_ID":"1999-025CUH","EPOCH":"2026-03-05T03:46:19.304832","MEAN_MOTION":13.50552022,"ECCENTRICITY":0.0292474,"INCLINATION":99.4936,"RA_OF_ASC_NODE":144.5032,"ARG_OF_PERICENTER":299.5418,"MEAN_ANOMALY":87.9819,"EPHEMERIS_TYPE":0,"CLASSIFICATION_TYPE":"U","NORAD_CAT_ID":32187,"ELEMENT_SET_NO":999,"REV_AT_EPOCH":67371,"BSTAR":0.0004179559,"MEAN_MOTION_DOT":3.06e-6,"MEAN_MOTION_DDOT":0},{"OBJECT_NAME":"FENGYUN 1C DEB","OBJECT_ID":"1999-025CUM","EPOCH":"2026-02-27T09:31:42.429504","MEAN_MOTION":14.25723753,"ECCENTRICITY":0.00904579,"INCLINATION":98.6977,"RA_OF_ASC_NODE":118.9282,"ARG_OF_PERICENTER":323.973,"MEAN_ANOMALY":35.5374,"EPHEMERIS_TYPE":0,"CLASSIFICATION_TYPE":"U","NORAD_CAT_ID":32191,"ELEMENT_SET_NO":999,"REV_AT_EPOCH":65593,"BSTAR":0.0010874169,"MEAN_MOTION_DOT":2.65e-5,"MEAN_MOTION_DDOT":0},{"OBJECT_NAME":"FENGYUN 1C DEB","OBJECT_ID":"1999-025CUN","EPOCH":"2026-03-04T13:40:29.060256","MEAN_MOTION":13.82586288,"ECCENTRICITY":0.0181102,"INCLINATION":98.6462,"RA_OF_ASC_NODE":292.8367,"ARG_OF_PERICENTER":300.9262,"MEAN_ANOMALY":57.4201,"EPHEMERIS_TYPE":0,"CLASSIFICATION_TYPE":"U","NORAD_CAT_ID":32192,"ELEMENT_SET_NO":999,"REV_AT_EPOCH":93843,"BSTAR":0.00037403,"MEAN_MOTION_DOT":4.19e-6,"MEAN_MOTION_DDOT":0},{"OBJECT_NAME":"FENGYUN 1C DEB","OBJECT_ID":"1999-025CUT","EPOCH":"2026-03-04T16:58:56.276256","MEAN_MOTION":14.32888498,"ECCENTRICITY":0.01619186,"INCLINATION":98.9013,"RA_OF_ASC_NODE":340.0425,"ARG_OF_PERICENTER":350.5551,"MEAN_ANOMALY":38.7411,"EPHEMERIS_TYPE":0,"CLASSIFICATION_TYPE":"U","NORAD_CAT_ID":32197,"ELEMENT_SET_NO":999,"REV_AT_EPOCH":95597,"BSTAR":0.00063369638,"MEAN_MOTION_DOT":1.951e-5,"MEAN_MOTION_DDOT":0},{"OBJECT_NAME":"FENGYUN 1C DEB","OBJECT_ID":"1999-025CUU","EPOCH":"2026-02-10T03:33:49.154976","MEAN_MOTION":14.09397708,"ECCENTRICITY":0.00950821,"INCLINATION":98.3441,"RA_OF_ASC_NODE":188.6841,"ARG_OF_PERICENTER":124.2314,"MEAN_ANOMALY":236.7911,"EPHEMERIS_TYPE":0,"CLASSIFICATION_TYPE":"U","NORAD_CAT_ID":32198,"ELEMENT_SET_NO":999,"REV_AT_EPOCH":57782,"BSTAR":0.0019625569,"MEAN_MOTION_DOT":3.532e-5,"MEAN_MOTION_DDOT":0},{"OBJECT_NAME":"FENGYUN 1C DEB","OBJECT_ID":"1999-025CUW","EPOCH":"2026-03-03T01:56:10.879872","MEAN_MOTION":14.16050646,"ECCENTRICITY":0.00405241,"INCLINATION":98.7818,"RA_OF_ASC_NODE":114.9449,"ARG_OF_PERICENTER":63.6325,"MEAN_ANOMALY":296.9001,"EPHEMERIS_TYPE":0,"CLASSIFICATION_TYPE":"U","NORAD_CAT_ID":32200,"ELEMENT_SET_NO":999,"REV_AT_EPOCH":95500,"BSTAR":0.0009452137,"MEAN_MOTION_DOT":1.838e-5,"MEAN_MOTION_DDOT":0},{"OBJECT_NAME":"FENGYUN 1C DEB","OBJECT_ID":"1999-025CUZ","EPOCH":"2026-03-04T22:51:01.708704","MEAN_MOTION":15.49210338,"ECCENTRICITY":0.01215665,"INCLINATION":97.0083,"RA_OF_ASC_NODE":317.675,"ARG_OF_PERICENTER":149.66,"MEAN_ANOMALY":211.1764,"EPHEMERIS_TYPE":0,"CLASSIFICATION_TYPE":"U","NORAD_CAT_ID":32203,"ELEMENT_SET_NO":999,"REV_AT_EPOCH":76367,"BSTAR":0.00051295015,"MEAN_MOTION_DOT":0.0003786,"MEAN_MOTION_DDOT":0},{"OBJECT_NAME":"FENGYUN 1C DEB","OBJECT_ID":"1999-025CVB","EPOCH":"2026-03-04T23:18:19.850112","MEAN_MOTION":14.13973996,"ECCENTRICITY":0.0011976,"INCLINATION":98.6809,"RA_OF_ASC_NODE":70.4862,"ARG_OF_PERICENTER":58.5277,"MEAN_ANOMALY":331.2007,"EPHEMERIS_TYPE":0,"CLASSIFICATION_TYPE":"U","NORAD_CAT_ID":32205,"ELEMENT_SET_NO":999,"REV_AT_EPOCH":95660,"BSTAR":0.00019716941,"MEAN_MOTION_DOT":3.32e-6,"MEAN_MOTION_DDOT":0},{"OBJECT_NAME":"FENGYUN 1C DEB","OBJECT_ID":"1999-025CVD","EPOCH":"2026-02-09T16:33:13.282848","MEAN_MOTION":14.3977982,"ECCENTRICITY":0.00846543,"INCLINATION":99.864,"RA_OF_ASC_NODE":13.4115,"ARG_OF_PERICENTER":329.6656,"MEAN_ANOMALY":209.0182,"EPHEMERIS_TYPE":0,"CLASSIFICATION_TYPE":"U","NORAD_CAT_ID":32207,"ELEMENT_SET_NO":999,"REV_AT_EPOCH":65155,"BSTAR":0.00054335896,"MEAN_MOTION_DOT":1.718e-5,"MEAN_MOTION_DDOT":0},{"OBJECT_NAME":"FENGYUN 1C DEB","OBJECT_ID":"1999-025CVF","EPOCH":"2026-03-01T07:27:26.501760","MEAN_MOTION":13.47437482,"ECCENTRICITY":0.03281428,"INCLINATION":99.426,"RA_OF_ASC_NODE":8.3023,"ARG_OF_PERICENTER":189.1291,"MEAN_ANOMALY":170.3782,"EPHEMERIS_TYPE":0,"CLASSIFICATION_TYPE":"U","NORAD_CAT_ID":32209,"ELEMENT_SET_NO":999,"REV_AT_EPOCH":91034,"BSTAR":0.0010719408,"MEAN_MOTION_DOT":8.69e-6,"MEAN_MOTION_DDOT":0}]
